{"type": "FeatureCollection", "features": [ {"type": "Feature", "properties": {"norad_id": 66905, "name": "STARLINK-36075", "group": "last-30-days", "lat": -9.187927549472889, "lon": -134.71925661938124, "alt_km": 350.14444167258716, "timestamp": "2025-12-19T18:58:40.329345+00:00", "meta": {"OBJECT_NAME": "STARLINK-36075", "OBJECT_ID": "2025-283AD", "EPOCH": "2025-12-19T06:00:02.000160", "MEAN_MOTION": 15.74707649, "ECCENTRICITY": 7.757e-05, "INCLINATION": 53.1559, "RA_OF_ASC_NODE": 40.999, "ARG_OF_PERICENTER": 93.9253, "MEAN_ANOMALY": 271.2615, "EPHEMERIS_TYPE": 0, "CLASSIFICATION_TYPE": "U", "NORAD_CAT_ID": 66905, "ELEMENT_SET_NO": 999, "REV_AT_EPOCH": 347, "BSTAR": -0.005714876, "MEAN_MOTION_DOT": -0.00781451, "MEAN_MOTION_DDOT": 0}, "tle": {"line1": "1 66905U 25283AD  25353.25002315 -.00781451  00000+0 -57149-2 0  9997", "line2": "2 66905  53.1559  40.9990 0000775  93.9253 271.2615 15.74707649  3475"}}, "geometry": {"type": "Point", "coordinates": [-134.71925661938124, -9.187927549472889]}}, {"type": "Feature", "properties": {"norad_id": 66906, "name": "1998-067XS", "group": "last-30-days", "lat": -21.982902750254503, "lon": -53.909955909321944, "alt_km": 415.22084430426185, "timestamp": "2025-12-19T18:58:40.329355+00:00", "meta": {"OBJECT_NAME": "1998-067XS", "OBJECT_ID": "1998-067XS", "EPOCH": "2025-12-18T14:14:47.325984", "MEAN_MOTION": 15.50877887, "ECCENTRICITY": 0.00030668, "INCLINATION": 51.6311, "RA_OF_ASC_NODE": 113.3804, "ARG_OF_PERICENTER": 230.517, "MEAN_ANOMALY": 129.5548, "EPHEMERIS_TYPE": 0, "CLASSIFICATION_TYPE": "U", "NORAD_CAT_ID": 66906, "ELEMENT_SET_NO": 999, "REV_AT_EPOCH": 252, "BSTAR": 0.00040765177, "MEAN_MOTION_DOT": 0.00023614, "MEAN_MOTION_DDOT": 0}, "tle": {"line1": "1 66906U 98067XS  25352.59360331  .00023614  00000+0  40765-3 0  9994", "line2": "2 66906  51.6311 113.3804 0003066 230.5170 129.5548 15.50877887  2528"}}, "geometry": {"type": "Point", "coordinates": [-53.909955909321944, -21.982902750254503]}}, {"type": "Feature", "properties": {"norad_id": 66907, "name": "1998-067XT", "group": "last-30-days", "lat": -48.37927297732093, "lon": -9.562909349128743, "alt_km": 411.96877612525077, "timestamp": "2025-12-19T18:58:40.329366+00:00", "meta": {"OBJECT_NAME": "1998-067XT", "OBJECT_ID": "1998-067XT", "EPOCH": "2025-12-18T14:04:54.777504", "MEAN_MOTION": 15.52162368, "ECCENTRICITY": 0.00039418, "INCLINATION": 51.6304, "RA_OF_ASC_NODE": 113.334, "ARG_OF_PERICENTER": 262.1658, "MEAN_ANOMALY": 97.8884, "EPHEMERIS_TYPE": 0, "CLASSIFICATION_TYPE": "U", "NORAD_CAT_ID": 66907, "ELEMENT_SET_NO": 999, "REV_AT_EPOCH": 252, "BSTAR": 0.0008765902, "MEAN_MOTION_DOT": 0.0005395, "MEAN_MOTION_DDOT": 0}, "tle": {"line1": "1 66907U 98067XT  25352.58674511  .00053950  00000+0  87659-3 0  9991", "line2": "2 66907  51.6304 113.3340 0003941 262.1658  97.8884 15.52162368  2523"}}, "geometry": {"type": "Point", "coordinates": [-9.562909349128743, -48.37927297732093]}}, {"type": "Feature", "properties": {"norad_id": 66908, "name": "1998-067XU", "group": "last-30-days", "lat": -49.71126964796976, "lon": -3.4984980425667977, "alt_km": 411.63814055603416, "timestamp": "2025-12-19T18:58:40.329376+00:00", "meta": {"OBJECT_NAME": "1998-067XU", "OBJECT_ID": "1998-067XU", "EPOCH": "2025-12-18T14:03:56.443680", "MEAN_MOTION": 15.52259493, "ECCENTRICITY": 0.00039838, "INCLINATION": 51.6306, "RA_OF_ASC_NODE": 113.3296, "ARG_OF_PERICENTER": 260.0245, "MEAN_ANOMALY": 100.0295, "EPHEMERIS_TYPE": 0, "CLASSIFICATION_TYPE": "U", "NORAD_CAT_ID": 66908, "ELEMENT_SET_NO": 999, "REV_AT_EPOCH": 252, "BSTAR": 0.00087908108, "MEAN_MOTION_DOT": 0.00054298, "MEAN_MOTION_DDOT": 0}, "tle": {"line1": "1 66908U 98067XU  25352.58606995  .00054298  00000+0  87908-3 0  9996", "line2": "2 66908  51.6306 113.3296 0003983 260.0245 100.0295 15.52259493  2520"}}, "geometry": {"type": "Point", "coordinates": [-3.4984980425667977, -49.71126964796976]}}, {"type": "Feature", "properties": {"norad_id": 66909, "name": "SILVERSAT", "group": "last-30-days", "lat": -50.91527306803148, "lon": 4.6037435707514645, "alt_km": 411.27876418292, "timestamp": "2025-12-19T18:58:40.329386+00:00", "meta": {"OBJECT_NAME": "SILVERSAT", "OBJECT_ID": "1998-067XV", "EPOCH": "2025-12-18T14:02:44.424960", "MEAN_MOTION": 15.52406005, "ECCENTRICITY": 0.00038673, "INCLINATION": 51.6304, "RA_OF_ASC_NODE": 113.3244, "ARG_OF_PERICENTER": 263.4051, "MEAN_ANOMALY": 96.6498, "EPHEMERIS_TYPE": 0, "CLASSIFICATION_TYPE": "U", "NORAD_CAT_ID": 66909, "ELEMENT_SET_NO": 999, "REV_AT_EPOCH": 252, "BSTAR": 0.00095009624, "MEAN_MOTION_DOT": 0.00059069, "MEAN_MOTION_DDOT": 0}, "tle": {"line1": "1 66909U 98067XV  25352.58523640  .00059069  00000+0  95010-3 0  9996", "line2": "2 66909  51.6304 113.3244 0003867 263.4051  96.6498 15.52406005  2523"}}, "geometry": {"type": "Point", "coordinates": [4.6037435707514645, -50.91527306803148]}}, {"type": "Feature", "properties": {"norad_id": 66910, "name": "1998-067XW", "group": "last-30-days", "lat": -51.56554506800017, "lon": 20.554286059212018, "alt_km": 411.2673081071216, "timestamp": "2025-12-19T18:58:40.329396+00:00", "meta": {"OBJECT_NAME": "1998-067XW", "OBJECT_ID": "1998-067XW", "EPOCH": "2025-12-18T14:00:11.133216", "MEAN_MOTION": 15.5243188, "ECCENTRICITY": 0.00043225, "INCLINATION": 51.6304, "RA_OF_ASC_NODE": 113.3129, "ARG_OF_PERICENTER": 240.7939, "MEAN_ANOMALY": 119.2619, "EPHEMERIS_TYPE": 0, "CLASSIFICATION_TYPE": "U", "NORAD_CAT_ID": 66910, "ELEMENT_SET_NO": 999, "REV_AT_EPOCH": 252, "BSTAR": 0.00081329162, "MEAN_MOTION_DOT": 0.00050492, "MEAN_MOTION_DDOT": 0}, "tle": {"line1": "1 66910U 98067XW  25352.58346219  .00050492  00000+0  81329-3 0  9992", "line2": "2 66910  51.6304 113.3129 0004322 240.7939 119.2619 15.52431880  2523"}}, "geometry": {"type": "Point", "coordinates": [20.554286059212018, -51.56554506800017]}}, {"type": "Feature", "properties": {"norad_id": 66911, "name": "1998-067XX", "group": "last-30-days", "lat": -49.302982393050314, "lon": 40.17200971026037, "alt_km": 410.2910043004349, "timestamp": "2025-12-19T18:58:40.329411+00:00", "meta": {"OBJECT_NAME": "1998-067XX", "OBJECT_ID": "1998-067XX", "EPOCH": "2025-12-18T15:30:03.053088", "MEAN_MOTION": 15.52835677, "ECCENTRICITY": 0.00040366, "INCLINATION": 51.6301, "RA_OF_ASC_NODE": 112.9797, "ARG_OF_PERICENTER": 247.1524, "MEAN_ANOMALY": 112.904, "EPHEMERIS_TYPE": 0, "CLASSIFICATION_TYPE": "U", "NORAD_CAT_ID": 66911, "ELEMENT_SET_NO": 999, "REV_AT_EPOCH": 252, "BSTAR": 0.0010034262, "MEAN_MOTION_DOT": 0.00063428, "MEAN_MOTION_DDOT": 0}, "tle": {"line1": "1 66911U 98067XX  25352.64586867  .00063428  00000+0  10034-2 0  9992", "line2": "2 66911  51.6301 112.9797 0004036 247.1524 112.9040 15.52835677  2520"}}, "geometry": {"type": "Point", "coordinates": [40.17200971026037, -49.302982393050314]}}, {"type": "Feature", "properties": {"norad_id": 66912, "name": "1998-067XY", "group": "last-30-days", "lat": -40.972359596679105, "lon": -29.146265353423303, "alt_km": 413.19202553416744, "timestamp": "2025-12-19T18:58:40.329421+00:00", "meta": {"OBJECT_NAME": "1998-067XY", "OBJECT_ID": "1998-067XY", "EPOCH": "2025-12-18T14:08:25.948608", "MEAN_MOTION": 15.51695277, "ECCENTRICITY": 0.00040785, "INCLINATION": 51.6305, "RA_OF_ASC_NODE": 113.3494, "ARG_OF_PERICENTER": 255.7838, "MEAN_ANOMALY": 104.2699, "EPHEMERIS_TYPE": 0, "CLASSIFICATION_TYPE": "U", "NORAD_CAT_ID": 66912, "ELEMENT_SET_NO": 999, "REV_AT_EPOCH": 251, "BSTAR": 0.00071420837, "MEAN_MOTION_DOT": 0.00043076, "MEAN_MOTION_DDOT": 0}, "tle": {"line1": "1 66912U 98067XY  25352.58918922  .00043076  00000+0  71421-3 0  9992", "line2": "2 66912  51.6305 113.3494 0004078 255.7838 104.2699 15.51695277  2515"}}, "geometry": {"type": "Point", "coordinates": [-29.146265353423303, -40.972359596679105]}}, {"type": "Feature", "properties": {"norad_id": 66913, "name": "2025-284A", "group": "last-30-days", "lat": 32.971283507141166, "lon": 127.14760000164542, "alt_km": 521.0008870231004, "timestamp": "2025-12-19T18:58:40.329433+00:00", "meta": {"OBJECT_NAME": "2025-284A", "OBJECT_ID": "2025-284A", "EPOCH": "2025-12-18T06:24:29.359008", "MEAN_MOTION": 15.16462178, "ECCENTRICITY": 0.00203688, "INCLINATION": 80.4052, "RA_OF_ASC_NODE": 122.7714, "ARG_OF_PERICENTER": 156.4299, "MEAN_ANOMALY": 203.7866, "EPHEMERIS_TYPE": 0, "CLASSIFICATION_TYPE": "U", "NORAD_CAT_ID": 66913, "ELEMENT_SET_NO": 999, "REV_AT_EPOCH": 196, "BSTAR": 0.00046237905, "MEAN_MOTION_DOT": 9.066e-05, "MEAN_MOTION_DDOT": 0}, "tle": {"line1": "1 66913U 25284A   25352.26700647  .00009066  00000+0  46238-3 0  9991", "line2": "2 66913  80.4052 122.7714 0020368 156.4299 203.7866 15.16462178  1964"}}, "geometry": {"type": "Point", "coordinates": [127.14760000164542, 32.971283507141166]}}, {"type": "Feature", "properties": {"norad_id": 66914, "name": "2025-284B", "group": "last-30-days", "lat": 73.45946834736057, "lon": 155.5535728356254, "alt_km": 506.37239918476007, "timestamp": "2025-12-19T18:58:40.329443+00:00", "meta": {"OBJECT_NAME": "2025-284B", "OBJECT_ID": "2025-284B", "EPOCH": "2025-12-16T06:51:11.417184", "MEAN_MOTION": 15.18985981, "ECCENTRICITY": 0.00081793, "INCLINATION": 80.4045, "RA_OF_ASC_NODE": 125.2713, "ARG_OF_PERICENTER": 234.9626, "MEAN_ANOMALY": 125.0834, "EPHEMERIS_TYPE": 0, "CLASSIFICATION_TYPE": "U", "NORAD_CAT_ID": 66914, "ELEMENT_SET_NO": 999, "REV_AT_EPOCH": 166, "BSTAR": 0.00038444995, "MEAN_MOTION_DOT": 8.068e-05, "MEAN_MOTION_DDOT": 0}, "tle": {"line1": "1 66914U 25284B   25350.28554881  .00008068  00000+0  38445-3 0  9991", "line2": "2 66914  80.4045 125.2713 0008179 234.9626 125.0834 15.18985981  1668"}}, "geometry": {"type": "Point", "coordinates": [155.5535728356254, 73.45946834736057]}}]}